METHANESAT              
1 59101U 24043D   25280.31030734  .00005141  00000+0  46144-3 0  9999
2 59101  97.8162  45.9610 0011866 130.0505 230.1759 14.96119392 86817
GOSAT-GW (IBUKI GW)     
1 64694U 25141A   25280.30603042  .00001387  00000+0  25275-3 0  9999
2 64694  98.0312 217.0589 0001430  80.8556 279.2811 14.67567915 14754
GHGSAT-C1               
1 46278U 20061G   25280.24829876  .00025983  00000+0  39033-3 0  9996
2 46278  97.2399 354.9422 0000990 216.4692 143.6495 15.54862049283970
GHGSAT-C12              
1 64529U 25135B   25280.25852731  .00005536  00000+0  27668-3 0  9992
2 64529  97.4576  33.0636 0004673 349.7997  10.3142 15.17851323 16425
GHGSAT-C13              
1 64548U 25135W   25280.25492933  .00004953  00000+0  24192-3 0  9998
2 64548  97.4601  33.2517 0000183  74.7513 285.3742 15.18715290 16430
GHGSAT-C2               
1 47509U 21006DA  25280.11974848  .00008115  00000+0  25013-3 0  9991
2 47509  97.2554 326.7690 0005760  15.4590 344.6828 15.33845892261006
GHGSAT-C3               
1 52737U 22057F   25280.32815088  .00009053  00000+0  31460-3 0  9995
2 52737  97.6282  52.8695 0005507 301.7324  58.3379 15.29969454186815
GHGSAT-C4               
1 52746U 22057Q   25280.34684743  .00008729  00000+0  30354-3 0  9999
2 52746  97.6210  51.9727 0005670 284.3988  75.6623 15.29960033186824
GHGSAT-C5               
1 52744U 22057N   25280.29821803  .00008877  00000+0  30868-3 0  9995
2 52744  97.6369  54.1185 0006519 296.7318  63.3255 15.29950359186811
GHGSAT-C6               
1 56204U 23054AC  25280.25795631  .00015370  00000+0  33382-3 0  9993
2 56204  97.3179 181.9240 0006572 231.6176 128.4483 15.44428167139304
GHGSAT-C7               
1 56209U 23054AH  25280.25050464  .00012358  00000+0  27947-3 0  9999
2 56209  97.3140 181.3195 0006910 225.9073 134.1607 15.43276148139297
GHGSAT-C8               
1 56186U 23054J   25280.29677851  .00015295  00000+0  33220-3 0  9996
2 56186  97.3147 181.4182 0003547 256.4662 103.6192 15.44445298139296
SENTINEL-5P             
1 42969U 17064A   25280.29852717  .00000139  00000+0  86985-4 0  9998
2 42969  98.7664 219.5088 0000958  88.0778 272.0508 14.19555686413681
ENMAP                   
1 52159U 22033C   25280.26081984  .00000871  00000+0  13716-3 0  9993
2 52159  97.9785   1.1371 0001476  78.6263 281.5112 14.74922555189374
PRISMA                  
1 44072U 19015A   25280.30127804  .00001512  00000+0  18925-3 0  9991
2 44072  97.8659 353.6969 0001277 103.6007 256.5349 14.83715101354555
SENTINEL-2A             
1 40697U 15028A   25280.34755282  .00000226  00000+0  10293-3 0  9992
2 40697  98.5693 353.8180 0001163  96.7376 263.3939 14.30819817537579
SENTINEL-2B             
1 42063U 17013A   25280.27043588  .00000230  00000+0  10422-3 0  9997
2 42063  98.5693 353.6780 0001020  92.0864 268.0436 14.30823179448475
SENTINEL-2C             
1 60989U 24157A   25280.23565225  .00000221  00000+0  10088-3 0  9992
2 60989  98.5669 353.7068 0001016  89.8427 270.2873 14.30822583 56810
LANDSAT 8               
1 39084U 13008A   25280.32160621  .00000618  00000+0  14726-3 0  9991
2 39084  98.2149 349.3478 0001295  91.6589 268.4757 14.57104316661073
LANDSAT 9               
1 49260U 21088A   25280.21864697  .00000645  00000+0  15327-3 0  9995
2 49260  98.2171 349.2662 0001403  90.0352 270.1007 14.57098306214164
